STARLINK-1470           
1 45772U 20038AU  26068.60892913  .00054678  00000+0  19687-2 0  9990
2 45772  53.0480 174.6971 0002444  12.8687 347.2373 15.28074860317065
STARLINK-2194           
1 47771U 21017BB  26068.68077411  .00014660  00000+0  51886-3 0  9990
2 47771  53.1565 203.8644 0001150  81.8928 278.2202 15.29387975277873
